[{"OBJECT_NAME":"STARLINK-30878","OBJECT_ID":"2023-177J","EPOCH":"2026-03-09T04:36:10.431360","MEAN_MOTION":15.02536419,"ECCENTRICITY":0.00012405,"INCLINATION":43.0075,"RA_OF_ASC_NODE":354.0522,"ARG_OF_PERICENTER":273.5334,"MEAN_ANOMALY":86.5367,"EPHEMERIS_TYPE":0,"CLASSIFICATION_TYPE":"U","NORAD_CAT_ID":58359,"ELEMENT_SET_NO":999,"REV_AT_EPOCH":12814,"BSTAR":-5.8001014e-5,"MEAN_MOTION_DOT":-9.87e-6,"MEAN_MOTION_DDOT":0},{"OBJECT_NAME":"UNKNOWN","OBJECT_ID":"","EPOCH":"2026-03-07T16:41:41.743392","MEAN_MOTION":15.0507428,"ECCENTRICITY":0.0006664,"INCLINATION":85.8737,"RA_OF_ASC_NODE":153.9139,"ARG_OF_PERICENTER":326.6675,"MEAN_ANOMALY":33.4139,"EPHEMERIS_TYPE":0,"CLASSIFICATION_TYPE":"U","NORAD_CAT_ID":82448,"ELEMENT_SET_NO":999,"REV_AT_EPOCH":44981,"BSTAR":0.00062595,"MEAN_MOTION_DOT":8.933e-5,"MEAN_MOTION_DDOT":0}]
